PROBA-1                 
1 26958U 01049B   21363.48361434  .00000394  00000+0  38961-4 0  9998
2 26958  97.7983 318.7611 0071909 190.1630 169.8138 14.95887596 99060
BIRD 2                  
1 26959U 01049C   21363.18395353  .00007521  00000+0  18745-3 0  9999
2 26959  97.7760  78.9920 0005949 260.4663  99.5910 15.40532293426940
CUTE-1 (CO-55)          
1 27844U 03031E   21363.54748359  .00000170  00000+0  96203-4 0  9993
2 27844  98.6800   8.8002 0009061 230.2863 129.7517 14.22364181959711
CUBESAT XI-IV (CO-57)   
1 27848U 03031J   21363.45837497  .00000144  00000+0  85229-4 0  9996
2 27848  98.6851   9.2602 0008798 245.5778 114.4482 14.21933644959528
GENESIS 1               
1 29252U 06029A   21363.57392023  .00003088  00000+0  14912-3 0  9991
2 29252  64.5228 268.3050 0059072 287.2299  72.2365 15.19271547853154
FALCONSAT-3             
1 30776U 07006E   21363.04465139  .00017050  00000+0  36489-3 0  9998
2 30776  35.4339 287.2327 0004221 261.6888  98.3362 15.43921386823164
GENESIS 2               
1 31789U 07028A   21363.26517176  .00003261  00000+0  16672-3 0  9991
2 31789  64.4973 312.0760 0028559 350.3030   9.7538 15.18272229800059
APRIZESAT 4             
1 35684U 09041D   21363.55241464  .00000320  00000+0  49820-4 0  9997
2 35684  98.3136   6.3726 0047105 175.0761 185.0923 14.79451631669949
APRIZESAT 3             
1 35686U 09041F   21363.47545217  .00000442  00000+0  52998-4 0  9998
2 35686  98.1206  81.3596 0073025  22.6397 337.8012 14.87627457673331
PROBA-2                 
1 36037U 09059B   21363.49982118  .00000137  00000+0  43892-4 0  9999
2 36037  98.2193 188.3156 0012203 273.5462  86.4339 14.53183605644577
APRIZESAT 5             
1 37792U 11044E   21363.57814148  .00000355  00000+0  59054-4 0  9990
2 37792  98.3485 228.7527 0057815 184.1406 175.9331 14.75573088557947
APRIZESAT 6             
1 37793U 11044F   21363.52076667  .00000369  00000+0  65952-4 0  9991
2 37793  98.4147 204.6701 0045798 231.9302 188.5746 14.72618367556850
TET-1                   
1 38710U 12039D   21363.54681569  .00021317  00000+0  28005-3 0  9994
2 38710  97.5325  68.3054 0000888   9.1548 350.9723 15.58537314530862
PROBA-V                 
1 39159U 13021A   21363.55971892  .00000006  00000+0  21079-4 0  9993
2 39159  98.3824  42.8175 0003463 214.7714 145.3239 14.23014052449165
STPSAT-3                
1 39380U 13064A   21363.39627471  .00018385  00000+0  45041-3 0  9992
2 39380  40.4998 339.6931 0004051 179.6393 180.4425 15.40258916453042
APRIZESAT 7             
1 39416U 13066A   21363.53703397  .00000481  00000+0  62860-4 0  9999
2 39416  97.5544 347.3987 0040529 195.9261 164.0683 14.84183774438834
APRIZESAT 8             
1 39425U 13066K   21363.51596479  .00000432  00000+0  60616-4 0  9991
2 39425  97.6048 338.3093 0050451 236.5307 123.1078 14.81375578437802
BUGSAT-1 (TITA)         
1 40014U 14033E   21363.54746724  .00001038  00000+0  97498-4 0  9996
2 40014  98.1322 350.2336 0029824 239.0428 120.7848 14.96020186410733
SAUDISAT 4              
1 40016U 14033G   21363.55612855  .00000271  00000+0  46387-4 0  9995
2 40016  97.6473 202.6567 0047599 333.9637  25.9180 14.75416422405342
APRIZESAT 9             
1 40018U 14033J   21363.45710717  .00000219  00000+0  42767-4 0  9992
2 40018  97.7001 178.3406 0072199  40.3051 320.3476 14.70113219403673
APRIZESAT 10            
1 40019U 14033K   21363.41061989  .00000237  00000+0  47961-4 0  9990
2 40019  97.7462 167.6701 0085540  79.3600 281.7225 14.67163620402869
TDS 1                   
1 40076U 14037H   21363.60979746  .00001369  00000+0  16752-3 0  9997
2 40076  98.4130 222.1926 0005745 258.7430 101.3138 14.85022656404495
TIANTUO 2               
1 40144U 14053B   21363.46105929  .00003778  00000+0  10887-3 0  9998
2 40144  97.2105  81.8633 0013036  92.7875  28.8736 15.36260069408980
TECHNOSAT               
1 42829U 17042E   21363.56598081  .00001025  00000+0  10763-3 0  9993
2 42829  97.4401 222.4250 0013227 210.4492 149.5961 14.91454007242767
FLYING LAPTOP           
1 42831U 17042G   21363.60580142  .00000215  00000+0  26695-4 0  9992
2 42831  97.4419 222.7388 0013024 210.8947 149.1510 14.91445451242778
HAWK-A                  
1 43765U 18099H   21363.53541169  .00001488  00000+0  13568-3 0  9997
2 43765  97.6424  70.7073 0016339 119.3412 240.9444 14.96514036167725
HAWK-B                  
1 43794U 18099AN  21363.20145850  .00001454  00000+0  13271-3 0  9994
2 43794  97.6423  70.3809 0016383 120.6159 239.6681 14.96511586167669
HAWK-C                  
1 43799U 18099AT  21363.40186315  .00001489  00000+0  13578-3 0  9990
2 43799  97.6423  70.4898 0016265 119.6667 240.6176 14.96514313168443
SALSAT                  
1 46495U 20068K   21363.58463343  .00001882  00000+0  14131-3 0  9996
2 46495  97.7096 300.1279 0017197 127.9715 232.3066 15.03741521 68653
